CCSDS_OMM_VERS = 2.0
CREATION_DATE  = 
ORIGINATOR     = 

OBJECT_NAME    = CZ-12 R/B
OBJECT_ID      = 2026-013K
CENTER_NAME    = EARTH
REF_FRAME      = TEME
TIME_SYSTEM    = UTC
MEAN_ELEMENT_THEORY = SGP/SGP4

EPOCH          = 2026-01-29T13:02:05.395200
MEAN_MOTION    = 14.14454871
ECCENTRICITY   = .00690603
INCLINATION    = 49.9902
RA_OF_ASC_NODE = 142.8353
ARG_OF_PERICENTER = 163.0056
MEAN_ANOMALY   = 197.3188

EPHEMERIS_TYPE = 0
CLASSIFICATION_TYPE = U
NORAD_CAT_ID   = 67531
ELEMENT_SET_NO = 999
REV_AT_EPOCH   = 144
BSTAR          = .21650671E-3
MEAN_MOTION_DOT = .271E-5
MEAN_MOTION_DDOT = 0

CCSDS_OMM_VERS = 2.0
CREATION_DATE  = 
ORIGINATOR     = 

OBJECT_NAME    = STARLINK-36587
OBJECT_ID      = 2026-014A
CENTER_NAME    = EARTH
REF_FRAME      = TEME
TIME_SYSTEM    = UTC
MEAN_ELEMENT_THEORY = SGP/SGP4

EPOCH          = 2026-01-31T12:00:01.999296
MEAN_MOTION    = 15.90585892
ECCENTRICITY   = .0001595
INCLINATION    = 97.2829
RA_OF_ASC_NODE = 274.4498
ARG_OF_PERICENTER = 84.0280
MEAN_ANOMALY   = 118.4751

EPHEMERIS_TYPE = 0
CLASSIFICATION_TYPE = U
NORAD_CAT_ID   = 67532
ELEMENT_SET_NO = 999
REV_AT_EPOCH   = 271
BSTAR          = -.51189E-2
MEAN_MOTION_DOT = -.1557433E-1
MEAN_MOTION_DDOT = .67435E-3

CCSDS_OMM_VERS = 2.0
CREATION_DATE  = 
ORIGINATOR     = 

OBJECT_NAME    = STARLINK-36417
OBJECT_ID      = 2026-014B
CENTER_NAME    = EARTH
REF_FRAME      = TEME
TIME_SYSTEM    = UTC
MEAN_ELEMENT_THEORY = SGP/SGP4

EPOCH          = 2026-01-31T12:00:01.999296
MEAN_MOTION    = 15.90657663
ECCENTRICITY   = .0001565
INCLINATION    = 97.2830
RA_OF_ASC_NODE = 274.4506
ARG_OF_PERICENTER = 86.5455
MEAN_ANOMALY   = 117.9032

EPHEMERIS_TYPE = 0
CLASSIFICATION_TYPE = U
NORAD_CAT_ID   = 67533
ELEMENT_SET_NO = 999
REV_AT_EPOCH   = 271
BSTAR          = -.50555E-2
MEAN_MOTION_DOT = -.154389E-1
MEAN_MOTION_DDOT = .664E-3

CCSDS_OMM_VERS = 2.0
CREATION_DATE  = 
ORIGINATOR     = 

OBJECT_NAME    = STARLINK-36576
OBJECT_ID      = 2026-014C
CENTER_NAME    = EARTH
REF_FRAME      = TEME
TIME_SYSTEM    = UTC
MEAN_ELEMENT_THEORY = SGP/SGP4

EPOCH          = 2026-01-31T12:00:01.999296
MEAN_MOTION    = 15.90808959
ECCENTRICITY   = .0001552
INCLINATION    = 97.2828
RA_OF_ASC_NODE = 274.4518
ARG_OF_PERICENTER = 81.8650
MEAN_ANOMALY   = 125.8568

EPHEMERIS_TYPE = 0
CLASSIFICATION_TYPE = U
NORAD_CAT_ID   = 67534
ELEMENT_SET_NO = 999
REV_AT_EPOCH   = 271
BSTAR          = -.50291E-2
MEAN_MOTION_DOT = -.154759E-1
MEAN_MOTION_DDOT = .66794E-3

CCSDS_OMM_VERS = 2.0
CREATION_DATE  = 
ORIGINATOR     = 

OBJECT_NAME    = STARLINK-36574
OBJECT_ID      = 2026-014D
CENTER_NAME    = EARTH
REF_FRAME      = TEME
TIME_SYSTEM    = UTC
MEAN_ELEMENT_THEORY = SGP/SGP4

EPOCH          = 2026-01-31T12:00:01.999296
MEAN_MOTION    = 15.91026158
ECCENTRICITY   = .0001511
INCLINATION    = 97.2827
RA_OF_ASC_NODE = 274.4538
ARG_OF_PERICENTER = 78.4918
MEAN_ANOMALY   = 133.8566

EPHEMERIS_TYPE = 0
CLASSIFICATION_TYPE = U
NORAD_CAT_ID   = 67535
ELEMENT_SET_NO = 999
REV_AT_EPOCH   = 271
BSTAR          = -.49451E-2
MEAN_MOTION_DOT = -.1538656E-1
MEAN_MOTION_DDOT = .66224E-3

CCSDS_OMM_VERS = 2.0
CREATION_DATE  = 
ORIGINATOR     = 

OBJECT_NAME    = STARLINK-36572
OBJECT_ID      = 2026-014E
CENTER_NAME    = EARTH
REF_FRAME      = TEME
TIME_SYSTEM    = UTC
MEAN_ELEMENT_THEORY = SGP/SGP4

EPOCH          = 2026-01-31T12:00:01.999296
MEAN_MOTION    = 15.91222966
ECCENTRICITY   = .0001438
INCLINATION    = 97.2824
RA_OF_ASC_NODE = 274.4560
ARG_OF_PERICENTER = 79.2338
MEAN_ANOMALY   = 137.3986

EPHEMERIS_TYPE = 0
CLASSIFICATION_TYPE = U
NORAD_CAT_ID   = 67536
ELEMENT_SET_NO = 999
REV_AT_EPOCH   = 271
BSTAR          = -.48668E-2
MEAN_MOTION_DOT = -.1529618E-1
MEAN_MOTION_DDOT = .65633E-3

CCSDS_OMM_VERS = 2.0
CREATION_DATE  = 
ORIGINATOR     = 

OBJECT_NAME    = STARLINK-36561
OBJECT_ID      = 2026-014F
CENTER_NAME    = EARTH
REF_FRAME      = TEME
TIME_SYSTEM    = UTC
MEAN_ELEMENT_THEORY = SGP/SGP4

EPOCH          = 2026-01-31T12:00:01.999296
MEAN_MOTION    = 15.91388092
ECCENTRICITY   = .000148
INCLINATION    = 97.2818
RA_OF_ASC_NODE = 274.4572
ARG_OF_PERICENTER = 86.1106
MEAN_ANOMALY   = 133.9995

EPHEMERIS_TYPE = 0
CLASSIFICATION_TYPE = U
NORAD_CAT_ID   = 67537
ELEMENT_SET_NO = 999
REV_AT_EPOCH   = 271
BSTAR          = -.48434E-2
MEAN_MOTION_DOT = -.1535059E-1
MEAN_MOTION_DDOT = .66174E-3

CCSDS_OMM_VERS = 2.0
CREATION_DATE  = 
ORIGINATOR     = 

OBJECT_NAME    = STARLINK-36397
OBJECT_ID      = 2026-014G
CENTER_NAME    = EARTH
REF_FRAME      = TEME
TIME_SYSTEM    = UTC
MEAN_ELEMENT_THEORY = SGP/SGP4

EPOCH          = 2026-01-31T12:00:01.999296
MEAN_MOTION    = 15.91528247
ECCENTRICITY   = .0001506
INCLINATION    = 97.2815
RA_OF_ASC_NODE = 274.4582
ARG_OF_PERICENTER = 86.4677
MEAN_ANOMALY   = 136.7270

EPHEMERIS_TYPE = 0
CLASSIFICATION_TYPE = U
NORAD_CAT_ID   = 67538
ELEMENT_SET_NO = 999
REV_AT_EPOCH   = 271
BSTAR          = -.48089E-2
MEAN_MOTION_DOT = -.1535064E-1
MEAN_MOTION_DDOT = .66266E-3

CCSDS_OMM_VERS = 2.0
CREATION_DATE  = 
ORIGINATOR     = 

OBJECT_NAME    = STARLINK-36573
OBJECT_ID      = 2026-014H
CENTER_NAME    = EARTH
REF_FRAME      = TEME
TIME_SYSTEM    = UTC
MEAN_ELEMENT_THEORY = SGP/SGP4

EPOCH          = 2026-01-31T12:00:01.999296
MEAN_MOTION    = 15.91703150
ECCENTRICITY   = .0001486
INCLINATION    = 97.2814
RA_OF_ASC_NODE = 274.4598
ARG_OF_PERICENTER = 81.6826
MEAN_ANOMALY   = 145.3419

EPHEMERIS_TYPE = 0
CLASSIFICATION_TYPE = U
NORAD_CAT_ID   = 67539
ELEMENT_SET_NO = 999
REV_AT_EPOCH   = 271
BSTAR          = -.47399E-2
MEAN_MOTION_DOT = -.1526702E-1
MEAN_MOTION_DDOT = .65714E-3

CCSDS_OMM_VERS = 2.0
CREATION_DATE  = 
ORIGINATOR     = 

OBJECT_NAME    = STARLINK-36585
OBJECT_ID      = 2026-014J
CENTER_NAME    = EARTH
REF_FRAME      = TEME
TIME_SYSTEM    = UTC
MEAN_ELEMENT_THEORY = SGP/SGP4

EPOCH          = 2026-01-31T12:00:01.999296
MEAN_MOTION    = 15.91852598
ECCENTRICITY   = .0001541
INCLINATION    = 97.2809
RA_OF_ASC_NODE = 274.4609
ARG_OF_PERICENTER = 85.3688
MEAN_ANOMALY   = 144.9684

EPHEMERIS_TYPE = 0
CLASSIFICATION_TYPE = U
NORAD_CAT_ID   = 67540
ELEMENT_SET_NO = 999
REV_AT_EPOCH   = 271
BSTAR          = -.46839E-2
MEAN_MOTION_DOT = -.1520341E-1
MEAN_MOTION_DDOT = .65305E-3

CCSDS_OMM_VERS = 2.0
CREATION_DATE  = 
ORIGINATOR     = 

OBJECT_NAME    = STARLINK-36579
OBJECT_ID      = 2026-014K
CENTER_NAME    = EARTH
REF_FRAME      = TEME
TIME_SYSTEM    = UTC
MEAN_ELEMENT_THEORY = SGP/SGP4

EPOCH          = 2026-01-31T12:00:01.999296
MEAN_MOTION    = 15.92062965
ECCENTRICITY   = .0001514
INCLINATION    = 97.2811
RA_OF_ASC_NODE = 274.4631
ARG_OF_PERICENTER = 82.2277
MEAN_ANOMALY   = 152.5086

EPHEMERIS_TYPE = 0
CLASSIFICATION_TYPE = U
NORAD_CAT_ID   = 67541
ELEMENT_SET_NO = 999
REV_AT_EPOCH   = 271
BSTAR          = -.46311E-2
MEAN_MOTION_DOT = -.1519538E-1
MEAN_MOTION_DDOT = .65378E-3

CCSDS_OMM_VERS = 2.0
CREATION_DATE  = 
ORIGINATOR     = 

OBJECT_NAME    = STARLINK-35934
OBJECT_ID      = 2026-014L
CENTER_NAME    = EARTH
REF_FRAME      = TEME
TIME_SYSTEM    = UTC
MEAN_ELEMENT_THEORY = SGP/SGP4

EPOCH          = 2026-01-31T12:00:01.999296
MEAN_MOTION    = 15.92297610
ECCENTRICITY   = .0001459
INCLINATION    = 97.2807
RA_OF_ASC_NODE = 274.4651
ARG_OF_PERICENTER = 80.7917
MEAN_ANOMALY   = 158.7962

EPHEMERIS_TYPE = 0
CLASSIFICATION_TYPE = U
NORAD_CAT_ID   = 67542
ELEMENT_SET_NO = 999
REV_AT_EPOCH   = 270
BSTAR          = -.45723E-2
MEAN_MOTION_DOT = -.1518454E-1
MEAN_MOTION_DDOT = .65446E-3

