CZ-12 R/B               
1 67531U 26013K   26029.54311800  .00000271  00000+0  21651-3 0  9992
2 67531  49.9902 142.8353 0069060 163.0056 197.3188 14.14454871  1440
STARLINK-36587          
1 67532U 26014A   26031.50002314 -.01557433  67435-3 -51189-2 0  9997
2 67532  97.2829 274.4498 0001595  84.0280 118.4751 15.90585892  2711
STARLINK-36417          
1 67533U 26014B   26031.50002314 -.01543890  66400-3 -50555-2 0  9997
2 67533  97.2830 274.4506 0001565  86.5455 117.9032 15.90657663  2714
STARLINK-36576          
1 67534U 26014C   26031.50002314 -.01547590  66794-3 -50291-2 0  9992
2 67534  97.2828 274.4518 0001552  81.8650 125.8568 15.90808959  2714
STARLINK-36574          
1 67535U 26014D   26031.50002314 -.01538656  66224-3 -49451-2 0  9990
2 67535  97.2827 274.4538 0001511  78.4918 133.8566 15.91026158  2711
STARLINK-36572          
1 67536U 26014E   26031.50002314 -.01529618  65633-3 -48668-2 0  9991
2 67536  97.2824 274.4560 0001438  79.2338 137.3986 15.91222966  2717
STARLINK-36561          
1 67537U 26014F   26031.50002314 -.01535059  66174-3 -48434-2 0  9990
2 67537  97.2818 274.4572 0001480  86.1106 133.9995 15.91388092  2716
STARLINK-36397          
1 67538U 26014G   26031.50002314 -.01535064  66266-3 -48089-2 0  9995
2 67538  97.2815 274.4582 0001506  86.4677 136.7270 15.91528247  2715
STARLINK-36573          
1 67539U 26014H   26031.50002314 -.01526702  65714-3 -47399-2 0  9995
2 67539  97.2814 274.4598 0001486  81.6826 145.3419 15.91703150  2711
STARLINK-36585          
1 67540U 26014J   26031.50002314 -.01520341  65305-3 -46839-2 0  9994
2 67540  97.2809 274.4609 0001541  85.3688 144.9684 15.91852598  2719
STARLINK-36579          
1 67541U 26014K   26031.50002314 -.01519538  65378-3 -46311-2 0  9996
2 67541  97.2811 274.4631 0001514  82.2277 152.5086 15.92062965  2711
STARLINK-35934          
1 67542U 26014L   26031.50002314 -.01518454  65446-3 -45723-2 0  9995
2 67542  97.2807 274.4651 0001459  80.7917 158.7962 15.92297610  2708
